NORAD_CAT_ID,OBJECT_NAME,OBJECT_TYPE,EPOCH,MEAN_MOTION,ECCENTRICITY,INCLINATION,RA_OF_ASC_NODE,ARG_OF_PERICENTER,MEAN_ANOMALY,BSTAR,MEAN_MOTION_DOT,MEAN_MOTION_DDOT,TLE_LINE0,TLE_LINE1,TLE_LINE2,SEMIMAJOR_AXIS,PERIOD,APOGEE,PERIGEE,DECAYED
53893.0,STARLINK-5052,PAYLOAD,2023-10-03 12:53:18,15.08853747,0.0001575,53.216,351.1986,77.3659,282.751,0.0011111,0.00017446,0.0,0 STARLINK-5052,1 53893U 22119H   23276.53702344  .00017446  00000-0  11111-2 0  9990,2 53893  53.2160 351.1986 0001575  77.3659 282.7510 15.08853747 57606,6917.838,95.437,540.793,538.614,0.0
53893.0,STARLINK-5052,PAYLOAD,2023-10-04 04:47:10,15.0885656,0.0001654,53.2163,348.225,81.3772,278.7407,0.00081893,0.00012775,0.0,0 STARLINK-5052,1 53893U 22119H   23277.19942284  .00012775  00000-0  81893-3 0  9997,2 53893  53.2163 348.2250 0001654  81.3772 278.7407 15.08856560 57289,6917.83,95.437,540.839,538.551,0.0
53893.0,STARLINK-5052,PAYLOAD,2023-10-04 11:08:42,15.08856026,0.0001535,53.2161,347.0342,86.0216,274.0952,0.00068085,0.00010569,0.0,0 STARLINK-5052,1 53893U 22119H   23277.46438081  .00010569  00000-0  68085-3 0  9999,2 53893  53.2161 347.0342 0001535  86.0216 274.0952 15.08856026 57741,6917.831,95.437,540.758,538.635,0.0
53893.0,STARLINK-5052,PAYLOAD,2023-10-04 22:16:24,15.08849435,0.0001571,53.2153,344.9535,87.3396,272.7776,0.00041924,6.392e-05,0.0,0 STARLINK-5052,1 53893U 22119H   23277.92806014  .00006392  00000-0  41924-3 0  9997,2 53893  53.2153 344.9535 0001571  87.3396 272.7776 15.08849435 57391,6917.852,95.437,540.803,538.63,0.0
53893.0,STARLINK-5052,PAYLOAD,2023-10-05 10:59:29,15.08846477,0.0001851,53.2175,342.5733,99.1923,260.9278,0.0003883,5.898e-05,0.0,0 STARLINK-5052,1 53893U 22119H   23278.45798126  .00005898  00000-0  38830-3 0  9992,2 53893  53.2175 342.5733 0001851  99.1923 260.9278 15.08846477 57475,6917.861,95.437,541.006,538.445,0.0
53893.0,STARLINK-5052,PAYLOAD,2023-10-05 14:10:15,15.08853694,0.0001814,53.2177,341.9785,100.3984,259.7213,0.00058476,9.034e-05,0.0,0 STARLINK-5052,1 53893U 22119H   23278.59046004  .00009034  00000-0  58476-3 0  9992,2 53893  53.2177 341.9785 0001814 100.3984 259.7213 15.08853694 57911,6917.839,95.437,540.958,538.449,0.0
53893.0,STARLINK-5052,PAYLOAD,2023-10-06 10:50:16,15.08842168,0.0001379,53.2163,338.1136,89.6947,270.4203,0.00023896,3.517e-05,0.0,0 STARLINK-5052,1 53893U 22119H   23279.45158544  .00003517  00000-0  23896-3 0  9999,2 53893  53.2163 338.1136 0001379  89.6947 270.4203 15.08842168 57629,6917.874,95.437,540.693,538.785,0.0
53893.0,STARLINK-5052,PAYLOAD,2023-10-07 13:51:50,15.0885442,0.0001377,53.217,333.0577,92.5506,267.5644,0.00058582,9.051e-05,0.0,0 STARLINK-5052,1 53893U 22119H   23280.57766416  .00009051  00000-0  58582-3 0  9996,2 53893  53.2170 333.0577 0001377  92.5506 267.5644 15.08854420 58218,6917.836,95.437,540.654,538.749,0.0
53893.0,STARLINK-5052,PAYLOAD,2023-10-08 10:31:51,15.08841687,0.0001382,53.2173,329.1942,87.4243,272.6907,0.00012778,1.746e-05,0.0,0 STARLINK-5052,1 53893U 22119H   23281.43878824  .00001746  00000-0  12778-3 0  9999,2 53893  53.2173 329.1942 0001382  87.4243 272.6907 15.08841687 57927,6917.875,95.437,540.696,538.784,0.0
53893.0,STARLINK-5052,PAYLOAD,2023-10-08 12:07:14,15.0884506,0.0001451,53.2175,328.8961,86.2622,273.8536,0.00019117,2.756e-05,0.0,0 STARLINK-5052,1 53893U 22119H   23281.50502723  .00002756  00000-0  19117-3 0  9995,2 53893  53.2175 328.8961 0001451  86.2622 273.8536 15.08845060 58359,6917.865,95.437,540.734,538.726,0.0
53893.0,STARLINK-5052,PAYLOAD,2023-10-08 20:04:10,15.08839393,0.0001386,53.2169,327.4104,90.2943,269.8208,0.00013587,1.875e-05,0.0,0 STARLINK-5052,1 53893U 22119H   23281.83622893  .00001875  00000-0  13587-3 0  9998,2 53893  53.2169 327.4104 0001386  90.2943 269.8208 15.08839393 58403,6917.882,95.438,540.706,538.788,0.0
53893.0,STARLINK-5052,PAYLOAD,2023-10-09 11:58:01,15.08851544,0.0001727,53.2175,324.4349,85.5536,274.5653,0.00042725,6.52e-05,0.0,0 STARLINK-5052,1 53893U 22119H   23282.49862618  .00006520  00000-0  42725-3 0  9990,2 53893  53.2175 324.4349 0001727  85.5536 274.5653 15.08851544 58502,6917.845,95.437,540.905,538.515,0.0
53893.0,STARLINK-5052,PAYLOAD,2023-10-10 02:16:29,15.08845579,0.0001658,53.2163,321.761,85.7988,274.3194,0.00026238,3.891e-05,0.0,0 STARLINK-5052,1 53893U 22119H   23283.09478889  .00003891  00000-0  26238-3 0  9999,2 53893  53.2163 321.7610 0001658  85.7988 274.3194 15.08845579 58178,6917.863,95.437,540.875,538.581,0.0
53893.0,STARLINK-5052,PAYLOAD,2023-10-10 11:48:48,15.08852332,0.000174,53.2173,319.9755,85.0256,275.0935,0.00036196,5.479e-05,0.0,0 STARLINK-5052,1 53893U 22119H   23283.49222655  .00005479  00000-0  36196-3 0  9999,2 53893  53.2173 319.9755 0001740  85.0256 275.0935 15.08852332 58650,6917.843,95.437,540.911,538.504,0.0
53893.0,STARLINK-5052,PAYLOAD,2023-10-10 19:45:44,15.08836193,0.0001765,53.2175,318.4881,81.8235,278.2957,5.6586e-05,6.13e-06,0.0,0 STARLINK-5052,1 53893U 22119H   23283.82343142  .00000613  00000-0  56586-4 0  9992,2 53893  53.2175 318.4881 0001765  81.8235 278.2957 15.08836193 58706,6917.892,95.438,540.978,538.536,0.0
53893.0,STARLINK-5052,PAYLOAD,2023-10-11 02:07:17,15.08835105,0.0001889,53.2169,317.3009,83.2341,276.8866,3.1e-05,2.05e-06,0.0,0 STARLINK-5052,1 53893U 22119H   23284.08839454  .00000205  00000-0  31000-4 0  9998,2 53893  53.2169 317.3009 0001889  83.2341 276.8866 15.08835105 58323,6917.895,95.438,541.067,538.454,0.0
53893.0,STARLINK-5052,PAYLOAD,2023-10-11 10:04:13,15.08834811,0.0001694,53.2165,315.811,89.5743,270.5443,-1.7641e-05,-5.69e-06,0.0,0 STARLINK-5052,1 53893U 22119H   23284.41959551 -.00000569  00000-0 -17641-4 0  9996,2 53893  53.2165 315.8110 0001694  89.5743 270.5443 15.08834811 58790,6917.896,95.438,540.933,538.589,0.0
53893.0,STARLINK-5052,PAYLOAD,2023-10-12 08:19:36,15.08853697,0.0001678,53.2159,311.6474,92.9127,267.2057,0.00059879,9.258e-05,0.0,0 STARLINK-5052,1 53893U 22119H   23285.34695403  .00009258  00000-0  59879-3 0  9992,2 53893  53.2159 311.6474 0001678  92.9127 267.2057 15.08853697 58513,6917.839,95.437,540.864,538.543,0.0
53893.0,STARLINK-5052,PAYLOAD,2023-10-12 11:30:23,15.08859368,0.0001721,53.2158,311.0527,91.7289,268.3901,0.0009234,0.00014446,0.0,0 STARLINK-5052,1 53893U 22119H   23285.47943378  .00014446  00000-0  92340-3 0  9998,2 53893  53.2158 311.0527 0001721  91.7289 268.3901 15.08859368 58959,6917.821,95.436,540.877,538.496,0.0
53893.0,STARLINK-5052,PAYLOAD,2023-10-12 19:27:18,15.08850164,0.0001538,53.2183,309.5658,101.0533,259.0632,0.00017901,2.563e-05,0.0,0 STARLINK-5052,1 53893U 22119H   23285.81063282  .00002563  00000-0  17901-3 0  9990,2 53893  53.2183 309.5658 0001538 101.0533 259.0632 15.08850164 58589,6917.849,95.437,540.778,538.65,0.0
53893.0,STARLINK-5052,PAYLOAD,2023-10-13 11:21:09,15.08854555,0.0001918,53.2165,306.5925,100.0329,260.0879,0.00060313,9.328e-05,0.0,0 STARLINK-5052,1 53893U 22119H   23286.47303212  .00009328  00000-0  60313-3 0  9994,2 53893  53.2165 306.5925 0001918 100.0329 260.0879 15.08854555 59109,6917.836,95.437,541.028,538.374,0.0
53893.0,STARLINK-5052,PAYLOAD,2023-10-14 01:39:38,15.08852406,0.0001915,53.216,303.9158,96.7771,263.3439,0.00066113,0.00010253,0.0,0 STARLINK-5052,1 53893U 22119H   23287.06919379  .00010253  00000-0  66113-3 0  9990,2 53893  53.2160 303.9158 0001915  96.7771 263.3439 15.08852406 58775,6917.842,95.437,541.032,538.383,0.0
53893.0,STARLINK-5052,PAYLOAD,2023-10-14 11:11:56,15.08855215,0.0001722,53.2158,302.131,91.4729,268.646,0.00041807,6.375e-05,0.0,0 STARLINK-5052,1 53893U 22119H   23287.46662994  .00006375  00000-0  41807-3 0  9995,2 53893  53.2158 302.1310 0001722  91.4729 268.6460 15.08855215 59251,6917.834,95.437,540.89,538.508,0.0
53893.0,STARLINK-5052,PAYLOAD,2023-10-15 04:41:12,15.08824981,0.0001642,53.2166,298.8585,102.7787,257.3388,-0.00016461,-2.906e-05,0.0,0 STARLINK-5052,1 53893U 22119H   23288.19528228 -.00002906  00000-0 -16461-3 0  9993,2 53893  53.2166 298.8585 0001642 102.7787 257.3388 15.08824981 58941,6917.926,95.439,540.927,538.655,0.0
53893.0,STARLINK-5052,PAYLOAD,2023-10-15 07:51:58,15.08829704,0.0001557,53.2165,298.266,93.9501,266.1669,-2.824e-05,-7.37e-06,0.0,0 STARLINK-5052,1 53893U 22119H   23288.32776264 -.00000737  00000-0 -28240-4 0  9992,2 53893  53.2165 298.2660 0001557  93.9501 266.1669 15.08829704 59385,6917.912,95.438,540.854,538.7,0.0
53893.0,STARLINK-5052,PAYLOAD,2023-10-15 17:24:17,15.08835279,0.0001523,53.2163,296.4819,94.8245,265.2921,0.00011006,1.464e-05,0.0,0 STARLINK-5052,1 53893U 22119H   23288.72520304  .00001464  00000-0  11006-3 0  9995,2 53893  53.2163 296.4819 0001523  94.8245 265.2921 15.08835279 59023,6917.895,95.438,540.813,538.706,0.0
53893.0,STARLINK-5052,PAYLOAD,2023-10-16 09:18:08,15.08852735,0.0001447,53.216,293.5083,92.2879,267.8279,0.00079199,0.00012343,0.0,0 STARLINK-5052,1 53893U 22119H   23289.38760275  .00012343  00000-0  79199-3 0  9996,2 53893  53.2160 293.5083 0001447  92.2879 267.8279 15.08852735 59122,6917.841,95.437,540.707,538.705,0.0
53893.0,STARLINK-5052,PAYLOAD,2023-10-17 09:08:55,15.08848932,0.0001452,53.2156,289.0489,101.2385,258.8771,0.00024448,3.606e-05,0.0,0 STARLINK-5052,1 53893U 22119H   23290.38120026  .00003606  00000-0  24448-3 0  9991,2 53893  53.2156 289.0489 0001452 101.2385 258.8771 15.08848932 59273,6917.853,95.437,540.723,538.714,0.0
53893.0,STARLINK-5052,PAYLOAD,2023-10-17 23:27:24,15.08844619,0.0001683,53.2174,286.3713,90.7808,269.3377,0.00012393,1.685e-05,0.0,0 STARLINK-5052,1 53893U 22119H   23290.97736184  .00001685  00000-0  12393-3 0  9995,2 53893  53.2174 286.3713 0001683  90.7808 269.3377 15.08844619 59368,6917.866,95.437,540.896,538.567,0.0
53893.0,STARLINK-5052,PAYLOAD,2023-10-18 16:56:38,15.08841164,0.0001517,53.2173,283.0996,86.7321,273.3845,6.7411e-05,7.85e-06,0.0,0 STARLINK-5052,1 53893U 22119H   23291.70600244  .00000785  00000-0  67411-4 0  9996,2 53893  53.2173 283.0996 0001517  86.7321 273.3845 15.08841164 59890,6917.877,95.437,540.791,538.692,0.0
